NORAD_CAT_ID,OBJECT_NAME,OBJECT_TYPE,EPOCH,MEAN_MOTION,ECCENTRICITY,INCLINATION,RA_OF_ASC_NODE,ARG_OF_PERICENTER,MEAN_ANOMALY,BSTAR,MEAN_MOTION_DOT,MEAN_MOTION_DDOT,TLE_LINE0,TLE_LINE1,TLE_LINE2,SEMIMAJOR_AXIS,PERIOD,APOGEE,PERIGEE,DECAYED
52841.0,STARLINK-4065,PAYLOAD,2022-10-14 14:00:01,15.08796385,0.0001602,53.218,210.1481,43.6791,257.4892,0.0038382,0.00061255,0.0,0 STARLINK-4065,1 52841U 22062M   22287.58334491  .00061255  00000-0  38382-2 0  9995,2 52841  53.2180 210.1481 0001602  43.6791 257.4892 15.08796385  1300,6918.014,95.44,540.987,538.77,0.0
52841.0,STARLINK-4065,PAYLOAD,2022-10-14 20:00:01,15.08837036,0.0001574,53.2176,209.0232,47.1896,172.6522,8.9989e-06,-1.45e-06,0.0,0 STARLINK-4065,1 52841U 22062M   22287.83334491 -.00000145  00000-0  89989-5 0  9997,2 52841  53.2176 209.0232 0001574  47.1896 172.6522 15.08837036  1306,6917.889,95.438,540.8430000000002,538.6659999999998,0.0
52841.0,STARLINK-4065,PAYLOAD,2022-10-15 06:00:00,15.08835209,0.0001664,53.2173,207.1544,42.3151,282.0168,0.0002455,3.621e-05,0.0,0 STARLINK-4065,1 52841U 22062M   22288.25001157  .00003621  00000-0  24550-3 0  9996,2 52841  53.2173 207.1544 0001664  42.3151 282.0168 15.08835209 18860,6917.895,95.438,540.911,538.609,0.0
52841.0,STARLINK-4065,PAYLOAD,2022-10-15 14:00:01,15.088170300000002,0.0001802,53.2194,205.6686,46.5358,289.3852,0.0022655,0.00035929,0.0,0 STARLINK-4065,1 52841U 22062M   22288.58334491  .00035929  00000-0  22655-2 0  9991,2 52841  53.2194 205.6686 0001802  46.5358 289.3852 15.08817030  1305,6917.951,95.439,541.062,538.569,0.0
52841.0,STARLINK-4065,PAYLOAD,2022-10-15 22:00:01,15.08837719,0.0001943999999999,53.2195,204.173,48.2346,299.3225,-0.0016637,-0.00026667,0.0,0 STARLINK-4065,1 52841U 22062M   22288.91668981 -.00026667  00000-0 -16637-2 0  9996,2 52841  53.2195 204.1730 0001944  48.2346 299.3225 15.08837719  1304,6917.887,95.438,541.097,538.408,0.0
52841.0,STARLINK-4065,PAYLOAD,2022-10-16 06:00:00,15.08813698,0.0002043,53.2192,202.6778,43.1103,315.9681,0.0007304999999999,0.00011349,0.0,0 STARLINK-4065,1 52841U 22062M   22289.25001157  .00011349  00000-0  73050-3 0  9992,2 52841  53.2192 202.6778 0002043  43.1103 315.9681 15.08813698 19010,6917.9609999999975,95.439,541.239,538.4119999999998,0.0
52841.0,STARLINK-4065,PAYLOAD,2022-10-16 14:00:01,15.08793797,0.0001804,53.2192,201.1789,48.5843,322.0712,0.0036774999999999,0.00058653,0.0,0 STARLINK-4065,1 52841U 22062M   22289.58334491  .00058653  00000-0  36775-2 0  9999,2 52841  53.2192 201.1789 0001804  48.5843 322.0712 15.08793797  1304,6918.022,95.44,541.135,538.639,0.0
52841.0,STARLINK-4065,PAYLOAD,2022-10-16 22:00:00,15.08849331,0.0001902,53.2195,199.6829,48.1548,334.0604,-0.00050136,-8.261e-05,0.0,0 STARLINK-4065,1 52841U 22062M   22289.91667824 -.00008261  00000-0 -50136-3 0  9995,2 52841  53.2195 199.6829 0001902  48.1548 334.0604 15.08849331  1309,6917.852,95.437,541.033,538.401,0.0
52841.0,STARLINK-4065,PAYLOAD,2022-10-17 14:00:01,15.08813899,0.0001714,53.219,196.6894,48.5375,356.88699999999994,0.0034323,0.00054722,0.0,0 STARLINK-4065,1 52841U 22062M   22290.58334491  .00054722  00000-0  34323-2 0  9991,2 52841  53.2190 196.6894 0001714  48.5375 356.8870 15.08813899 19212,6917.96,95.439,541.011,538.639,0.0
52841.0,STARLINK-4065,PAYLOAD,2022-10-17 22:00:00,15.08874938,0.0001804,53.2193,195.1941,46.8176,10.2002,-0.0013102,-0.0002109999999999,0.0,0 STARLINK-4065,1 52841U 22062M   22290.91667824 -.00021100  00000-0 -13102-2 0  9995,2 52841  53.2193 195.1941 0001804  46.8176  10.2002 15.08874938  1302,6917.774,95.435,540.887,538.391,0.0
52841.0,STARLINK-4065,PAYLOAD,2022-10-18 14:00:01,15.08797687,0.0001754,53.2189,192.2024,49.6346,30.5937,0.0032088999999999,0.00051093,0.0,0 STARLINK-4065,1 52841U 22062M   22291.58334491  .00051093  00000-0  32089-2 0  9997,2 52841  53.2189 192.2024 0001754  49.6346  30.5937 15.08797687  1308,6918.01,95.44,541.0880000000002,538.661,0.0
52841.0,STARLINK-4065,PAYLOAD,2022-10-18 22:00:00,15.08839473,0.0001913,53.2189,190.7074,48.6016,43.1852,-0.0011782,-0.0001899,0.0,0 STARLINK-4065,1 52841U 22062M   22291.91667824 -.00018990  00000-0 -11782-2 0  9991,2 52841  53.2189 190.7074 0001913  48.6016  43.1852 15.08839473 19413,6917.882,95.438,541.07,538.424,0.0
52841.0,STARLINK-4065,PAYLOAD,2022-10-19 14:00:01,15.08833547,0.00018,53.2186,187.7137,51.0379,63.9407,0.0024479,0.00038879,0.0,0 STARLINK-4065,1 52841U 22062M   22292.58334491  .00038879  00000-0  24479-2 0  9999,2 52841  53.2186 187.7137 0001800  51.0379  63.9407 15.08833547 19525,6917.9,95.438,541.01,538.52,0.0
52841.0,STARLINK-4065,PAYLOAD,2022-10-19 22:00:00,15.08836454,0.0001981,53.2174,186.2043,48.8155,77.808,1.8388e-05,4e-08,0.0,0 STARLINK-4065,1 52841U 22062M   22292.91667824  .00000004  00000-0  18388-4 0  9998,2 52841  53.2174 186.2043 0001981  48.8155  77.8080 15.08836454  1306,6917.891,95.438,541.127,538.386,0.0
52841.0,STARLINK-4065,PAYLOAD,2022-10-20 08:00:01,15.08872814,0.0001864,53.2186,184.3482,45.0983,185.9757,-0.0041348,-0.00065555,0.0,0 STARLINK-4065,1 52841U 22062M   22293.33334491 -.00065555  00000-0 -41348-2 0  9990,2 52841  53.2186 184.3482 0001864  45.0983 185.9757 15.08872814 19630,6917.78,95.435,540.935,538.356,0.0
52841.0,STARLINK-4065,PAYLOAD,2022-10-20 14:00:01,15.08807933,0.000172,53.2183,183.2224,49.1236,100.6709,0.0030805,0.00049036,0.0,0 STARLINK-4065,1 52841U 22062M   22293.58334491  .00049036  00000-0  30805-2 0  9997,2 52841  53.2183 183.2224 0001720  49.1236 100.6709 15.08807933  1302,6917.978,95.44,541.033,538.654,0.0
52841.0,STARLINK-4065,PAYLOAD,2022-10-20 22:00:00,15.08847691,0.0001898,53.2188,181.7281,46.8289,114.5424,-0.00066349,-0.00010834,0.0,0 STARLINK-4065,1 52841U 22062M   22293.91667824 -.00010834  00000-0 -66349-3 0  9992,2 52841  53.2188 181.7281 0001898  46.8289 114.5424 15.08847691 19729,6917.857,95.437,541.035,538.409,0.0
52841.0,STARLINK-4065,PAYLOAD,2022-10-21 14:00:01,15.08812998,0.000174,53.2186,178.7336,47.7238,136.855,0.0029898,0.00047581,0.0,0 STARLINK-4065,1 52841U 22062M   22294.58334491  .00047581  00000-0  29898-2 0  9991,2 52841  53.2186 178.7336 0001740  47.7238 136.8550 15.08812998  1308,6917.9630000000025,95.439,541.0319999999998,538.624,0.0
52841.0,STARLINK-4065,PAYLOAD,2022-10-21 22:00:00,15.08857617,0.0001888,53.2182,177.2338,49.1771,146.9867,-0.0020905999999999,-0.00033423,0.0,0 STARLINK-4065,1 52841U 22062M   22294.91667824 -.00033423  00000-0 -20906-2 0  9990,2 52841  53.2182 177.2338 0001888  49.1771 146.9867 15.08857617  1301,6917.8269999999975,95.436,540.998,538.385,0.0
52841.0,STARLINK-4065,PAYLOAD,2022-10-22 08:00:01,15.08872479,0.0001858,53.2174,175.3705,41.6543,259.001,-0.0049936,-0.00078962,0.0,0 STARLINK-4065,1 52841U 22062M   22295.33334491 -.00078962  00000-0 -49936-2 0  9999,2 52841  53.2174 175.3705 0001858  41.6543 259.0010 15.08872479 19937,6917.781,95.436,540.931,538.361,0.0
52841.0,STARLINK-4065,PAYLOAD,2022-10-22 14:00:01,15.08809161,0.0001751999999999,53.2176,174.2471,44.8725,174.4981,0.0029643,0.00047165,0.0,0 STARLINK-4065,1 52841U 22062M   22295.58334491  .00047165  00000-0  29643-2 0  9998,2 52841  53.2176 174.2471 0001752  44.8725 174.4981 15.08809161  1304,6917.975,95.44,541.052,538.628,0.0
52841.0,STARLINK-4065,PAYLOAD,2022-10-22 22:00:00,15.0884685,0.0001937,53.2177,172.7524,42.6912,188.2639,8.904e-05,1.129e-05,0.0,0 STARLINK-4065,1 52841U 22062M   22295.91667824  .00001129  00000-0  89040-4 0  9993,2 52841  53.2177 172.7524 0001937  42.6912 188.2639 15.08846850  1305,6917.859,95.437,541.064,538.384,0.0
52841.0,STARLINK-4065,PAYLOAD,2022-10-23 00:00:02,15.08838338,0.0001998,53.2178,172.3786,42.2414,281.6792,0.0016320999999999,0.00025781,0.0,0 STARLINK-4065,1 52841U 22062M   22296.00002315  .00025781  00000-0  16321-2 0  9992,2 52841  53.2178 172.3786 0001998  42.2414 281.6792 15.08838338 20033,6917.885,95.438,541.133,538.368,0.0
52841.0,STARLINK-4065,PAYLOAD,2022-10-23 14:00:01,15.08825398,0.0001881,53.2178,169.7581,48.7041,205.484,0.0030716,0.00048917,0.0,0 STARLINK-4065,1 52841U 22062M   22296.58334491  .00048917  00000-0  30716-2 0  9998,2 52841  53.2178 169.7581 0001881  48.7041 205.4840 15.08825398  1303,6917.925,95.438,541.091,538.489,0.0
52841.0,STARLINK-4065,PAYLOAD,2022-10-23 22:00:00,15.08867688,0.0001994,53.2177,168.2635,44.62,221.1645,-0.0044913999999999,-0.00071119,0.0,0 STARLINK-4065,1 52841U 22062M   22296.91667824 -.00071119  00000-0 -44914-2 0  9991,2 52841  53.2177 168.2635 0001994  44.6200 221.1645 15.08867688 20175,6917.795999999999,95.436,541.04,538.281,0.0
52841.0,STARLINK-4065,PAYLOAD,2022-10-24 14:00:01,15.08765449,0.0001819,53.2176,165.2692,48.3776,240.5746,0.0036663,0.00058426,0.0,0 STARLINK-4065,1 52841U 22062M   22297.58334491  .00058426  00000-0  36663-2 0  9992,2 52841  53.2176 165.2692 0001819  48.3776 240.5746 15.08765449  1302,6918.108,95.442,541.232,538.715,0.0
52841.0,STARLINK-4065,PAYLOAD,2022-10-24 16:00:00,15.08779376,0.0001821999999999,53.2177,164.8955,49.0026,332.8257,0.0033611999999999,0.00053523,0.0,0 STARLINK-4065,1 52841U 22062M   22297.66667824  .00053523  00000-0  33612-2 0  9994,2 52841  53.2177 164.8955 0001822  49.0026 332.8257 15.08779376 20284,6918.066,95.441,541.191,538.67,0.0
52841.0,STARLINK-4065,PAYLOAD,2022-10-24 22:00:00,15.08808925,0.0001956999999999,53.2173,163.7747,43.5175,256.9618,0.0010879,0.00017054,0.0,0 STARLINK-4065,1 52841U 22062M   22297.91667824  .00017054  00000-0  10879-2 0  9991,2 52841  53.2173 163.7747 0001957  43.5175 256.9618 15.08808925  1302,6917.975,95.44,541.194,538.487,0.0
52841.0,STARLINK-4065,PAYLOAD,2022-10-25 06:00:00,15.08842513,0.0001901,53.2169,162.278,42.3637,269.675,-0.0019966,-0.00031926,0.0,0 STARLINK-4065,1 52841U 22062M   22298.25001157 -.00031926  00000-0 -19966-2 0  9992,2 52841  53.2169 162.2780 0001901  42.3637 269.6750 15.08842513 20374,6917.873000000001,95.437,541.053,538.423,0.0
